start=new Date('2021-12-17T00:00:00.000Z').valueOf();
sats=[{"PERIOD":"95.592","TLE_LINE1":"1 47835U 21018BA  21350.72023855  .00001645  00000-0  12934-3 0  9990","EPHEMERIS_TYPE":"0","FILE":"3242223","LAUNCH_DATE":"2021-03-11","RCS_SIZE":"LARGE","APOAPSIS":"548.450","CENTER_NAME":"EARTH","TIME_SYSTEM":"UTC","ECCENTRICITY":"0.00017930","GP_ID":"191860935","PERIAPSIS":"545.967","EPOCH":"2021-12-16T17:17:08.610720","ARG_OF_PERICENTER":"58.3432","NORAD_CAT_ID":"47835","MEAN_ELEMENT_THEORY":"SGP4","MEAN_MOTION_DOT":"0.00001645","OBJECT_TYPE":"PAYLOAD","SEMIMAJOR_AXIS":"6925.344","RA_OF_ASC_NODE":"347.7853","OBJECT_NAME":"STARLINK-2425","BSTAR":"0.00012934000000","SITE":"AFETR","MEAN_MOTION":"15.06401637","DECAY_DATE":null,"MEAN_MOTION_DDOT":"0.0000000000000","REV_AT_EPOCH":"4380","MEAN_ANOMALY":"301.7732","ELEMENT_SET_NO":"999","TLE_LINE2":"2 47835  53.0539 347.7853 0001793  58.3432 301.7732 15.06401637 43807","REF_FRAME":"TEME","OBJECT_ID":"2021-018BA","CLASSIFICATION_TYPE":"U","INCLINATION":"53.0539","COUNTRY_CODE":"US"},{"EPOCH":"2021-12-16T23:31:59.954592","ARG_OF_PERICENTER":"51.6852","PERIAPSIS":"545.847","ECCENTRICITY":"0.00019610","GP_ID":"191837837","TIME_SYSTEM":"UTC","CENTER_NAME":"EARTH","RCS_SIZE":"LARGE","APOAPSIS":"548.563","LAUNCH_DATE":"2021-03-11","TLE_LINE1":"1 47836U 21018BB  21350.98055503  .00001651  00000-0  12971-3 0  9992","FILE":"3242160","EPHEMERIS_TYPE":"0","PERIOD":"95.592","COUNTRY_CODE":"US","INCLINATION":"53.0577","CLASSIFICATION_TYPE":"U","OBJECT_ID":"2021-018BB","REF_FRAME":"TEME","TLE_LINE2":"2 47836  53.0577 341.5902 0001961  51.6852 308.4313 15.06402872 43582","ELEMENT_SET_NO":"999","MEAN_ANOMALY":"308.4313","REV_AT_EPOCH":"4358","MEAN_MOTION_DDOT":"0.0000000000000","DECAY_DATE":null,"MEAN_MOTION":"15.06402872","SITE":"AFETR","BSTAR":"0.00012971000000","OBJECT_NAME":"STARLINK-2426","RA_OF_ASC_NODE":"341.5902","SEMIMAJOR_AXIS":"6925.340","OBJECT_TYPE":"PAYLOAD","MEAN_ELEMENT_THEORY":"SGP4","MEAN_MOTION_DOT":"0.00001651","NORAD_CAT_ID":"47836"},{"ECCENTRICITY":"0.00020430","GP_ID":"191837855","ARG_OF_PERICENTER":"56.6515","EPOCH":"2021-12-16T22:21:41.957568","PERIAPSIS":"545.777","TLE_LINE1":"1 47837U 21018BC  21350.93173562  .00002024  00000-0  15471-3 0  9997","FILE":"3242161","EPHEMERIS_TYPE":"0","LAUNCH_DATE":"2021-03-11","PERIOD":"95.592","TIME_SYSTEM":"UTC","RCS_SIZE":"LARGE","APOAPSIS":"548.607","CENTER_NAME":"EARTH","ELEMENT_SET_NO":"999","REV_AT_EPOCH":"4386","MEAN_ANOMALY":"303.4669","INCLINATION":"53.0565","COUNTRY_CODE":"US","OBJECT_ID":"2021-018BC","CLASSIFICATION_TYPE":"U","TLE_LINE2":"2 47837  53.0565 321.8259 0002043  56.6515 303.4669 15.06407077 43861","REF_FRAME":"TEME","SEMIMAJOR_AXIS":"6925.327","RA_OF_ASC_NODE":"321.8259","OBJECT_TYPE":"PAYLOAD","NORAD_CAT_ID":"47837","MEAN_ELEMENT_THEORY":"SGP4","MEAN_MOTION_DOT":"0.00002024","MEAN_MOTION_DDOT":"0.0000000000000","MEAN_MOTION":"15.06407077","SITE":"AFETR","DECAY_DATE":null,"BSTAR":"0.00015471000000","OBJECT_NAME":"STARLINK-2427"},{"ECCENTRICITY":"0.00020130","GP_ID":"191860186","PERIAPSIS":"545.730","ARG_OF_PERICENTER":"69.2706","EPOCH":"2021-12-16T21:04:43.606272","PERIOD":"95.590","LAUNCH_DATE":"2021-03-11","EPHEMERIS_TYPE":"0","TLE_LINE1":"1 47838U 21018BD  21350.87828248 -.00004661  00000-0 -29394-3 0  9999","FILE":"3242223","TIME_SYSTEM":"UTC","CENTER_NAME":"EARTH","RCS_SIZE":"LARGE","APOAPSIS":"548.518","ELEMENT_SET_NO":"999","MEAN_ANOMALY":"290.8499","REV_AT_EPOCH":"4390","COUNTRY_CODE":"US","INCLINATION":"53.0556","TLE_LINE2":"2 47838  53.0556 342.0604 0002013  69.2706 290.8499 15.06429349 43901","REF_FRAME":"TEME","CLASSIFICATION_TYPE":"U","OBJECT_ID":"2021-018BD","RA_OF_ASC_NODE":"342.0604","SEMIMAJOR_AXIS":"6925.259","MEAN_ELEMENT_THEORY":"SGP4","MEAN_MOTION_DOT":"-0.00004661","NORAD_CAT_ID":"47838","OBJECT_TYPE":"PAYLOAD","DECAY_DATE":null,"SITE":"AFETR","MEAN_MOTION":"15.06429349","MEAN_MOTION_DDOT":"0.0000000000000","OBJECT_NAME":"STARLINK-2429","BSTAR":"-0.00029394000000"},{"MEAN_MOTION_DDOT":"0.0000000000000","DECAY_DATE":null,"MEAN_MOTION":"15.06397404","SITE":"AFETR","BSTAR":"0.00000474130000","OBJECT_NAME":"STARLINK-2431","RA_OF_ASC_NODE":"312.8204","SEMIMAJOR_AXIS":"6925.357","OBJECT_TYPE":"PAYLOAD","MEAN_ELEMENT_THEORY":"SGP4","MEAN_MOTION_DOT":"-0.00000211","NORAD_CAT_ID":"47839","COUNTRY_CODE":"US","INCLINATION":"53.0547","CLASSIFICATION_TYPE":"U","OBJECT_ID":"2021-018BE","REF_FRAME":"TEME","TLE_LINE2":"2 47839  53.0547 312.8204 0002596  48.2644 311.8566 15.06397404 44318","ELEMENT_SET_NO":"999","MEAN_ANOMALY":"311.8566","REV_AT_EPOCH":"4431","TIME_SYSTEM":"UTC","CENTER_NAME":"EARTH","RCS_SIZE":"LARGE","APOAPSIS":"549.019","LAUNCH_DATE":"2021-03-11","TLE_LINE1":"1 47839U 21018BE  21350.70782246 -.00000211  00000-0  47413-5 0  9999","EPHEMERIS_TYPE":"0","FILE":"3242223","PERIOD":"95.592","ARG_OF_PERICENTER":"48.2644","EPOCH":"2021-12-16T16:59:15.860544","PERIAPSIS":"545.424","ECCENTRICITY":"0.00025960","GP_ID":"191860436"},{"COUNTRY_CODE":"US","INCLINATION":"53.0562","OBJECT_ID":"2021-018BF","CLASSIFICATION_TYPE":"U","REF_FRAME":"TEME","TLE_LINE2":"2 47840  53.0562 323.0673 0002113  51.9264 308.1915 15.06398748 44156","ELEMENT_SET_NO":"999","MEAN_ANOMALY":"308.1915","REV_AT_EPOCH":"4415","MEAN_MOTION_DDOT":"0.0000000000000","DECAY_DATE":null,"MEAN_MOTION":"15.06398748","SITE":"AFETR","BSTAR":"0.00002768800000","OBJECT_NAME":"STARLINK-2432","RA_OF_ASC_NODE":"323.0673","SEMIMAJOR_AXIS":"6925.352","OBJECT_TYPE":"PAYLOAD","MEAN_ELEMENT_THEORY":"SGP4","MEAN_MOTION_DOT":"0.00000131","NORAD_CAT_ID":"47840","EPOCH":"2021-12-16T15:38:19.417632","ARG_OF_PERICENTER":"51.9264","PERIAPSIS":"545.754","GP_ID":"191861188","ECCENTRICITY":"0.00021130","TIME_SYSTEM":"UTC","CENTER_NAME":"EARTH","RCS_SIZE":"LARGE","APOAPSIS":"548.681","LAUNCH_DATE":"2021-03-11","TLE_LINE1":"1 47840U 21018BF  21350.65161363  .00000131  00000-0  27688-4 0  9997","FILE":"3242223","EPHEMERIS_TYPE":"0","PERIOD":"95.592"},{"PERIOD":"95.592","LAUNCH_DATE":"2021-03-11","TLE_LINE1":"1 47841U 21018BG  21350.64792846  .00000581  00000-0  57926-4 0  9990","FILE":"3242223","EPHEMERIS_TYPE":"0","CENTER_NAME":"EARTH","APOAPSIS":"548.499","RCS_SIZE":"LARGE","TIME_SYSTEM":"UTC","ECCENTRICITY":"0.00018710","GP_ID":"191861938","PERIAPSIS":"545.908","ARG_OF_PERICENTER":"60.6895","EPOCH":"2021-12-16T15:33:01.018944","MEAN_MOTION_DOT":"0.00000581","MEAN_ELEMENT_THEORY":"SGP4","NORAD_CAT_ID":"47841","OBJECT_TYPE":"PAYLOAD","RA_OF_ASC_NODE":"323.0826","SEMIMAJOR_AXIS":"6925.338","OBJECT_NAME":"STARLINK-2433","BSTAR":"0.00005792600000","DECAY_DATE":null,"SITE":"AFETR","MEAN_MOTION":"15.06403290","MEAN_MOTION_DDOT":"0.0000000000000","MEAN_ANOMALY":"299.4280","REV_AT_EPOCH":"4415","ELEMENT_SET_NO":"999","TLE_LINE2":"2 47841  53.0561 323.0826 0001871  60.6895 299.4280 15.06403290 44159","REF_FRAME":"TEME","OBJECT_ID":"2021-018BG","CLASSIFICATION_TYPE":"U","COUNTRY_CODE":"US","INCLINATION":"53.0561"},{"RCS_SIZE":"LARGE","APOAPSIS":"548.401","CENTER_NAME":"EARTH","TIME_SYSTEM":"UTC","TLE_LINE1":"1 47842U 21018BH  21350.50140544  .00000550  00000-0  55805-4 0  9998","FILE":"3241867","EPHEMERIS_TYPE":"0","LAUNCH_DATE":"2021-03-11","PERIOD":"95.592","ARG_OF_PERICENTER":"58.5561","EPOCH":"2021-12-16T12:02:01.430016","PERIAPSIS":"545.976","ECCENTRICITY":"0.00017510","GP_ID":"191829047","BSTAR":"0.00005580500000","OBJECT_NAME":"STARLINK-2434","MEAN_MOTION_DDOT":"0.0000000000000","SITE":"AFETR","MEAN_MOTION":"15.06408278","DECAY_DATE":null,"OBJECT_TYPE":"PAYLOAD","NORAD_CAT_ID":"47842","MEAN_MOTION_DOT":"0.00000550","MEAN_ELEMENT_THEORY":"SGP4","SEMIMAJOR_AXIS":"6925.323","RA_OF_ASC_NODE":"353.7570","OBJECT_ID":"2021-018BH","CLASSIFICATION_TYPE":"U","REF_FRAME":"TEME","TLE_LINE2":"2 47842  53.0572 353.7570 0001751  58.5561 301.5599 15.06408278 43766","INCLINATION":"53.0572","COUNTRY_CODE":"US","REV_AT_EPOCH":"4376","MEAN_ANOMALY":"301.5599","ELEMENT_SET_NO":"999"},{"CLASSIFICATION_TYPE":"U","OBJECT_ID":"2021-018BJ","TLE_LINE2":"2 47843  53.0569 346.4952 0001809  56.2779 303.8382 15.06403799 43528","REF_FRAME":"TEME","COUNTRY_CODE":"US","INCLINATION":"53.0569","MEAN_ANOMALY":"303.8382","REV_AT_EPOCH":"4352","ELEMENT_SET_NO":"999","BSTAR":"0.00000650880000","OBJECT_NAME":"STARLINK-2435","MEAN_MOTION_DDOT":"0.0000000000000","DECAY_DATE":null,"MEAN_MOTION":"15.06403799","SITE":"AFETR","OBJECT_TYPE":"PAYLOAD","MEAN_MOTION_DOT":"-0.00000185","MEAN_ELEMENT_THEORY":"SGP4","NORAD_CAT_ID":"47843","RA_OF_ASC_NODE":"346.4952","SEMIMAJOR_AXIS":"6925.337","ARG_OF_PERICENTER":"56.2779","EPOCH":"2021-12-17T00:07:11.388288","PERIAPSIS":"545.949","ECCENTRICITY":"0.00018090","GP_ID":"191837882","CENTER_NAME":"EARTH","APOAPSIS":"548.455","RCS_SIZE":"LARGE","TIME_SYSTEM":"UTC","LAUNCH_DATE":"2021-03-11","TLE_LINE1":"1 47843U 21018BJ  21351.00499292 -.00000185  00000-0  65088-5 0  9992","FILE":"3242163","EPHEMERIS_TYPE":"0","PERIOD":"95.592"},{"MEAN_ANOMALY":"301.7557","REV_AT_EPOCH":"4359","ELEMENT_SET_NO":"999","OBJECT_ID":"2021-018BK","CLASSIFICATION_TYPE":"U","REF_FRAME":"TEME","TLE_LINE2":"2 47844  53.0567 341.4933 0001875  58.3615 301.7557 15.06398761 43596","COUNTRY_CODE":"US","INCLINATION":"53.0567","OBJECT_TYPE":"PAYLOAD","MEAN_ELEMENT_THEORY":"SGP4","MEAN_MOTION_DOT":"-0.00000036","NORAD_CAT_ID":"47844","RA_OF_ASC_NODE":"341.4933","SEMIMAJOR_AXIS":"6925.352","BSTAR":"0.00001649900000","OBJECT_NAME":"STARLINK-2446","MEAN_MOTION_DDOT":"0.0000000000000","DECAY_DATE":null,"SITE":"AFETR","MEAN_MOTION":"15.06398761","ECCENTRICITY":"0.00018750","GP_ID":"191837712","ARG_OF_PERICENTER":"58.3615","EPOCH":"2021-12-17T00:05:12.623712","PERIAPSIS":"545.919","LAUNCH_DATE":"2021-03-11","FILE":"3242164","TLE_LINE1":"1 47844U 21018BK  21351.00361833 -.00000036  00000-0  16499-4 0  9998","EPHEMERIS_TYPE":"0","PERIOD":"95.592","CENTER_NAME":"EARTH","RCS_SIZE":"LARGE","APOAPSIS":"548.516","TIME_SYSTEM":"UTC"}];
